OSCAR 31                
1 19420U 88074B   26065.91010042  .00000109  00000+0  17239-3 0  9993
2 19420  90.0432  20.8934 0094559   1.6662  57.3422 13.42597433837805
