[{"OBJECT_NAME":"OSCAR 31","OBJECT_ID":"1988-074B","EPOCH":"2026-03-06T21:50:32.676288","MEAN_MOTION":13.42597433,"ECCENTRICITY":0.0094559,"INCLINATION":90.0432,"RA_OF_ASC_NODE":20.8934,"ARG_OF_PERICENTER":1.6662,"MEAN_ANOMALY":57.3422,"EPHEMERIS_TYPE":0,"CLASSIFICATION_TYPE":"U","NORAD_CAT_ID":19420,"ELEMENT_SET_NO":999,"REV_AT_EPOCH":83780,"BSTAR":0.00017239,"MEAN_MOTION_DOT":1.09e-6,"MEAN_MOTION_DDOT":0}]
